NORAD_CAT_ID,OBJECT_NAME,OBJECT_TYPE,EPOCH,MEAN_MOTION,ECCENTRICITY,INCLINATION,RA_OF_ASC_NODE,ARG_OF_PERICENTER,MEAN_ANOMALY,BSTAR,MEAN_MOTION_DOT,MEAN_MOTION_DDOT,TLE_LINE0,TLE_LINE1,TLE_LINE2,SEMIMAJOR_AXIS,PERIOD,APOGEE,PERIGEE,DECAYED
53172.0,STARLINK-4299,PAYLOAD,2024-03-30 17:50:38,15.08850358,0.0001609,53.2172,101.6151,86.3437,273.7739,5.5228e-05,5.91e-06,0.0,0 STARLINK-4299,1 53172U 22083AS  24090.74350560  .00000591  00000-0  55228-4 0  9999,2 53172  53.2172 101.6151 0001609  86.3437 273.7739 15.08850358 94398,6917.849,95.437,540.827,538.601,0.0
53172.0,STARLINK-4299,PAYLOAD,2024-03-31 04:58:21,15.08839572,0.0001732,53.2173,99.5349,90.9126,269.2064,0.00013883,1.922e-05,0.0,0 STARLINK-4299,1 53172U 22083AS  24091.20719284  .00001922  00000-0  13883-3 0  9992,2 53172  53.2173  99.5349 0001732  90.9126 269.2064 15.08839572 95102,6917.882,95.438,540.945,538.549,0.0
53172.0,STARLINK-4299,PAYLOAD,2024-03-31 08:09:07,15.08839898,0.0001603,53.2169,98.9403,91.4186,268.699,9.1509e-05,1.169e-05,0.0,0 STARLINK-4299,1 53172U 22083AS  24091.33967271  .00001169  00000-0  91509-4 0  9992,2 53172  53.2169  98.9403 0001603  91.4186 268.6990 15.08839898 94482,6917.881,95.438,540.855,538.637,0.0
53172.0,STARLINK-4299,PAYLOAD,2024-03-31 17:41:26,15.0884548,0.0001537,53.2168,97.1554,90.7944,269.3225,0.00010261,1.346e-05,0.0,0 STARLINK-4299,1 53172U 22083AS  24091.73710823  .00001346  00000-0  10261-3 0  9997,2 53172  53.2168  97.1554 0001537  90.7944 269.3225 15.08845480 94549,6917.864,95.437,540.792,538.665,0.0
53172.0,STARLINK-4299,PAYLOAD,2024-04-01 00:02:59,15.08825259,0.0001371,53.2174,95.9643,91.4627,268.6522,-0.00010172,-1.906e-05,0.0,0 STARLINK-4299,1 53172U 22083AS  24092.00207850 -.00001906  00000-0 -10172-3 0  9994,2 53172  53.2174  95.9643 0001371  91.4627 268.6522 15.08825259 95223,6917.925,95.438,540.739,538.842,0.0
53172.0,STARLINK-4299,PAYLOAD,2024-04-01 06:24:31,15.088327,0.0001465,53.2166,94.7762,87.3431,272.7729,1.2552e-05,-8.8e-07,0.0,0 STARLINK-4299,1 53172U 22083AS  24092.26703657 -.00000088  00000-0  12552-4 0  9992,2 53172  53.2166  94.7762 0001465  87.3431 272.7729 15.08832700 95262,6917.903,95.438,540.781,538.754,0.0
53172.0,STARLINK-4299,PAYLOAD,2024-04-02 06:15:18,15.08843822,0.0001551,53.2158,90.3159,88.0496,272.0674,0.00021174,3.084e-05,0.0,0 STARLINK-4299,1 53172U 22083AS  24093.26063379  .00003084  00000-0  21174-3 0  9990,2 53172  53.2158  90.3159 0001551  88.0496 272.0674 15.08843822 95416,6917.869,95.437,540.807,538.661,0.0
53172.0,STARLINK-4299,PAYLOAD,2024-04-03 02:55:19,15.08841924,0.0001511,53.2169,86.4491,92.0687,268.0479,0.00022156,3.24e-05,0.0,0 STARLINK-4299,1 53172U 22083AS  24094.12175505  .00003240  00000-0  22156-3 0  9996,2 53172  53.2169  86.4491 0001511  92.0687 268.0479 15.08841924 95549,6917.875,95.437,540.785,538.694,0.0
53172.0,STARLINK-4299,PAYLOAD,2024-04-03 06:06:06,15.08839598,0.0001491,53.2158,85.8553,86.7777,273.3386,0.00018581,2.67e-05,0.0,0 STARLINK-4299,1 53172U 22083AS  24094.25423670  .00002670  00000-0  18581-3 0  9992,2 53172  53.2158  85.8553 0001491  86.7777 273.3386 15.08839598 94927,6917.882,95.438,540.778,538.715,0.0
53172.0,STARLINK-4299,PAYLOAD,2024-04-04 05:56:53,15.08838466,0.0001358,53.2174,81.3943,88.3288,271.786,7.3833e-05,8.87e-06,0.0,0 STARLINK-4299,1 53172U 22083AS  24095.24783784  .00000887  00000-0  73833-4 0  9997,2 53172  53.2174  81.3943 0001358  88.3288 271.7860 15.08838466 95716,6917.885,95.438,540.69,538.811,0.0
53172.0,STARLINK-4299,PAYLOAD,2024-04-04 09:07:39,15.08840568,0.0001302,53.2172,80.7989,86.1355,273.9786,3.65e-05,2.93e-06,0.0,0 STARLINK-4299,1 53172U 22083AS  24095.38031672  .00000293  00000-0  36500-4 0  9995,2 53172  53.2172  80.7989 0001302  86.1355 273.9786 15.08840568 95095,6917.879,95.438,540.644,538.843,0.0
53172.0,STARLINK-4299,PAYLOAD,2024-04-04 15:29:11,15.08845137,0.0001342,53.2177,79.6096,87.3348,272.7798,7.873e-05,9.65e-06,0.0,0 STARLINK-4299,1 53172U 22083AS  24095.64527176  .00000965  00000-0  78730-4 0  9990,2 53172  53.2177  79.6096 0001342  87.3348 272.7798 15.08845137 95777,6917.865,95.437,540.658,538.801,0.0
53172.0,STARLINK-4299,PAYLOAD,2024-04-05 05:47:40,15.0883747,0.0001388,53.2183,76.9365,94.9886,265.1265,9.384e-05,1.206e-05,0.0,0 STARLINK-4299,1 53172U 22083AS  24096.24143678  .00001206  00000-0  93840-4 0  9996,2 53172  53.2183  76.9365 0001388  94.9886 265.1265 15.08837470 95860,6917.888,95.438,540.713,538.793,0.0
53172.0,STARLINK-4299,PAYLOAD,2024-04-05 15:19:58,15.08848243,0.0001496,53.2192,75.1523,94.2601,265.8563,0.00010456,1.377e-05,0.0,0 STARLINK-4299,1 53172U 22083AS  24096.63886902  .00001377  00000-0  10456-3 0  9993,2 53172  53.2192  75.1523 0001496  94.2601 265.8563 15.08848243 95920,6917.855,95.437,540.755,538.685,0.0
53172.0,STARLINK-4299,PAYLOAD,2024-04-05 21:41:30,15.08892976,0.0001324,53.2194,73.963,103.8352,256.2788,-0.00051694,-8.518e-05,0.0,0 STARLINK-4299,1 53172U 22083AS  24096.90382157 -.00008518  00000-0 -51694-3 0  9991,2 53172  53.2194  73.9630 0001324 103.8352 256.2788 15.08892976 95326,6917.718,95.434,540.499,538.668,0.0
53172.0,STARLINK-4299,PAYLOAD,2024-04-06 04:03:03,15.08840272,0.0001532,53.2192,72.7728,95.7906,264.326,8.6863e-05,1.095e-05,0.0,0 STARLINK-4299,1 53172U 22083AS  24097.16879434  .00001095  00000-0  86863-4 0  9997,2 53172  53.2192  72.7728 0001532  95.7906 264.3260 15.08840272 96007,6917.88,95.438,540.804,538.685,0.0
53172.0,STARLINK-4299,PAYLOAD,2024-04-06 05:38:26,15.08840875,0.0001531,53.2193,72.4755,95.5405,264.5762,8.766e-05,1.107e-05,0.0,0 STARLINK-4299,1 53172U 22083AS  24097.23503375  .00001107  00000-0  87660-4 0  9993,2 53172  53.2193  72.4755 0001531  95.5405 264.5762 15.08840875 95373,6917.878,95.437,540.802,538.684,0.0
53172.0,STARLINK-4299,PAYLOAD,2024-04-06 21:32:18,15.08840091,0.0001702,53.2189,69.5042,94.7813,265.3374,8.0795e-05,9.98e-06,0.0,0 STARLINK-4299,1 53172U 22083AS  24097.89743430  .00000998  00000-0  80795-4 0  9992,2 53172  53.2189  69.5042 0001702  94.7813 265.3374 15.08840091 95477,6917.88,95.438,540.923,538.568,0.0
53172.0,STARLINK-4299,PAYLOAD,2024-04-07 07:04:38,15.08832203,0.0001459,53.2191,67.7168,97.0278,263.088,-5.6582e-05,-1.188e-05,0.0,0 STARLINK-4299,1 53172U 22083AS  24098.29488496 -.00001188  00000-0 -56582-4 0  9996,2 53172  53.2191  67.7168 0001459  97.0278 263.0880 15.08832203 95539,6917.904,95.438,540.779,538.76,0.0
53172.0,STARLINK-4299,PAYLOAD,2024-04-07 15:01:33,15.08840136,0.0001479,53.2194,66.23,93.2665,266.8496,-1.5423e-05,-5.33e-06,0.0,0 STARLINK-4299,1 53172U 22083AS  24098.62607995 -.00000533  00000-0 -15423-4 0  9992,2 53172  53.2194  66.2300 0001479  93.2665 266.8496 15.08840136 96229,6917.88,95.438,540.768,538.722,0.0
53172.0,STARLINK-4299,PAYLOAD,2024-04-08 06:55:24,15.08841827,0.0001253,53.2182,63.2553,76.5928,283.5203,0.00011799,1.591e-05,0.0,0 STARLINK-4299,1 53172U 22083AS  24099.28847816  .00001591  00000-0  11799-3 0  9997,2 53172  53.2182  63.2553 0001253  76.5928 283.5203 15.08841827 95688,6917.875,95.437,540.607,538.873,0.0
53172.0,STARLINK-4299,PAYLOAD,2024-04-08 14:52:19,15.08847604,0.0001358,53.2173,61.7673,116.0389,244.0743,0.0002131,3.106e-05,0.0,0 STARLINK-4299,1 53172U 22083AS  24099.61967431  .00003106  00000-0  21310-3 0  9994,2 53172  53.2173  61.7673 0001358 116.0389 244.0743 15.08847604 96378,6917.857,95.437,540.662,538.783,0.0
53172.0,STARLINK-4299,PAYLOAD,2024-04-09 03:35:25,15.08833783,0.0001227,53.2175,59.3891,96.3568,263.7564,0.00018645,2.68e-05,0.0,0 STARLINK-4299,1 53172U 22083AS  24100.14960453  .00002680  00000-0  18645-3 0  9995,2 53172  53.2175  59.3891 0001227  96.3568 263.7564 15.08833783 96450,6917.899,95.438,540.613,538.916,0.0
53172.0,STARLINK-4299,PAYLOAD,2024-04-09 06:46:11,15.08838208,0.0001548,53.2186,58.793,104.3849,255.7315,0.00017036,2.424e-05,0.0,0 STARLINK-4299,1 53172U 22083AS  24100.28208330  .00002424  00000-0  17036-3 0  9998,2 53172  53.2186  58.7930 0001548 104.3849 255.7315 15.08838208 95830,6917.886,95.438,540.822,538.68,0.0
53172.0,STARLINK-4299,PAYLOAD,2024-04-09 14:43:07,15.08848685,0.0001369,53.2176,57.307,97.3982,262.7166,0.00026892,3.996e-05,0.0,0 STARLINK-4299,1 53172U 22083AS  24100.61327734  .00003996  00000-0  26892-3 0  9990,2 53172  53.2176  57.3070 0001369  97.3982 262.7166 15.08848685 96528,6917.854,95.437,540.666,538.772,0.0
53172.0,STARLINK-4299,PAYLOAD,2024-04-10 03:26:12,15.08841415,0.0001271,53.2189,54.9302,93.5217,266.592,0.00014056,1.95e-05,0.0,0 STARLINK-4299,1 53172U 22083AS  24101.14320086  .00001950  00000-0  14056-3 0  9999,2 53172  53.2189  54.9302 0001271  93.5217 266.5920 15.08841415 96607,6917.876,95.437,540.62,538.862,0.0
53172.0,STARLINK-4299,PAYLOAD,2024-04-10 06:36:58,15.08845555,0.000153,53.2189,54.3328,98.9719,261.1446,7.5576e-05,9.15e-06,0.0,0 STARLINK-4299,1 53172U 22083AS  24101.27567792  .00000915  00000-0  75576-4 0  9995,2 53172  53.2189  54.3328 0001530  98.9719 261.1446 15.08845555 95986,6917.863,95.437,540.787,538.67,0.0
53172.0,STARLINK-4299,PAYLOAD,2024-04-11 03:16:59,15.08836179,0.0001497,53.2195,50.4656,102.8626,257.2534,5.6911e-05,6.18e-06,0.0,0 STARLINK-4299,1 53172U 22083AS  24102.13680347  .00000618  00000-0  56911-4 0  9995,2 53172  53.2195  50.4656 0001497 102.8626 257.2534 15.08836179 96750,6917.892,95.438,540.793,538.721,0.0
53172.0,STARLINK-4299,PAYLOAD,2024-04-11 06:27:46,15.08835003,0.0001489,53.2198,49.8715,102.8471,257.2687,2.1023e-05,4.7e-07,0.0,0 STARLINK-4299,1 53172U 22083AS  24102.26928530  .00000047  00000-0  21023-4 0  9990,2 53172  53.2198  49.8715 0001489 102.8471 257.2687 15.08835003 96136,6917.896,95.438,540.791,538.731,0.0
53172.0,STARLINK-4299,PAYLOAD,2024-04-12 03:07:46,15.0883623,0.0001245,53.2185,46.0095,95.5977,264.5157,6.4201e-05,7.34e-06,0.0,0 STARLINK-4299,1 53172U 22083AS  24103.13040490  .00000734  00000-0  64201-4 0  9995,2 53172  53.2185  46.0095 0001245  95.5977 264.5157 15.08836230 96261,6917.892,95.438,540.618,538.896,0.0
